{
"type": "FeatureCollection",
"name": "kingstowne_tracts_demographics",
"crs": { "type": "name", "properties": { "name": "urn:ogc:def:crs:OGC:1.3:CRS84" } },
"features": [
{ "type": "Feature", "properties": { "STATEFP": "51", "COUNTYFP": "059", "TRACTCE": "421103", "GEOID": "51059421103", "GEOIDFQ": "1400000US51059421103", "NAME_x": "4211.03", "NAMELSAD": "Census Tract 4211.03", "MTFCC": "G5020", "FUNCSTAT": "S", "ALAND": 4914488, "AWATER": 44824, "INTPTLAT": "+38.7395362", "INTPTLON": "-077.1678766", "bbox_west": -77.167532, "bbox_south": 38.740042, "bbox_east": -77.121969, "bbox_north": 38.784071, "place_id": 347794220, "osm_type": "relation", "osm_id": 18347702, "lat": 38.762132, "lon": -77.1444093, "class": "boundary", "type": "census", "place_rank": 25, "importance": 0.37858398060478177, "addresstype": "census", "name": "Kingstowne", "display_name": "Kingstowne, Fairfax County, Virginia, United States", "NAME_y": "4211.03", "median_income": 145865, "no_vehicle_households": 29, "population": 6355, "state": "51", "county": "059", "tract": "421103" }, "geometry": { "type": "Polygon", "coordinates": [ [ [ -77.186261, 38.735509 ], [ -77.186237, 38.735671 ], [ -77.186108, 38.736226 ], [ -77.185857, 38.737298 ], [ -77.18582, 38.737499 ], [ -77.185798, 38.737694 ], [ -77.18564, 38.738254 ], [ -77.185631, 38.738338 ], [ -77.18559, 38.738588 ], [ -77.185551, 38.738724 ], [ -77.185212, 38.739907 ], [ -77.185054, 38.740447 ], [ -77.182888, 38.740144 ], [ -77.182599, 38.740112 ], [ -77.181887, 38.740016 ], [ -77.181754, 38.739995 ], [ -77.178607, 38.739514 ], [ -77.176968, 38.739329 ], [ -77.176422, 38.739458 ], [ -77.175529, 38.739681 ], [ -77.175199, 38.739764 ], [ -77.172577, 38.740256 ], [ -77.170327, 38.740679 ], [ -77.170357, 38.740753 ], [ -77.170387, 38.74086 ], [ -77.170457, 38.741102 ], [ -77.170467, 38.741136 ], [ -77.170496, 38.741237 ], [ -77.17065, 38.741778 ], [ -77.170683, 38.741927 ], [ -77.170735, 38.742144 ], [ -77.170768, 38.742331 ], [ -77.170785, 38.742456 ], [ -77.1708, 38.742706 ], [ -77.170812, 38.743016 ], [ -77.170794, 38.743314 ], [ -77.170791, 38.74337 ], [ -77.170767, 38.743597 ], [ -77.170753, 38.743726 ], [ -77.170723, 38.743866 ], [ -77.170681, 38.744003 ], [ -77.170646, 38.74409 ], [ -77.170633, 38.744127 ], [ -77.170581, 38.744239 ], [ -77.170527, 38.744338 ], [ -77.170516, 38.744357 ], [ -77.170448, 38.744463 ], [ -77.170307, 38.744648 ], [ -77.17011, 38.744859 ], [ -77.170078, 38.744893 ], [ -77.170016, 38.744967 ], [ -77.169978, 38.745012 ], [ -77.169871, 38.745165 ], [ -77.169777, 38.74533 ], [ -77.169684, 38.745542 ], [ -77.169619, 38.745753 ], [ -77.169607, 38.745822 ], [ -77.169588, 38.745937 ], [ -77.169575, 38.746192 ], [ -77.169582, 38.746319 ], [ -77.169598, 38.746435 ], [ -77.169656, 38.746673 ], [ -77.169722, 38.746845 ], [ -77.169742, 38.746896 ], [ -77.169802, 38.747015 ], [ -77.169864, 38.747122 ], [ -77.169995, 38.747307 ], [ -77.170156, 38.747489 ], [ -77.170272, 38.747599 ], [ -77.170383, 38.747695 ], [ -77.170528, 38.74782 ], [ -77.170703, 38.747998 ], [ -77.170813, 38.748139 ], [ -77.170849, 38.748186 ], [ -77.170944, 38.748352 ], [ -77.171024, 38.748495 ], [ -77.171104, 38.748697 ], [ -77.171155, 38.748895 ], [ -77.171184, 38.749096 ], [ -77.171189, 38.749287 ], [ -77.171168, 38.749543 ], [ -77.17113, 38.749744 ], [ -77.171074, 38.749955 ], [ -77.170985, 38.750176 ], [ -77.170905, 38.750336 ], [ -77.170809, 38.750498 ], [ -77.170713, 38.750638 ], [ -77.170598, 38.750783 ], [ -77.17047, 38.750924 ], [ -77.170349, 38.751043 ], [ -77.170218, 38.751156 ], [ -77.170061, 38.751278 ], [ -77.169917, 38.751378 ], [ -77.169746, 38.751483 ], [ -77.169546, 38.75159 ], [ -77.169385, 38.751666 ], [ -77.169185, 38.751747 ], [ -77.169038, 38.751796 ], [ -77.168863, 38.751855 ], [ -77.168716, 38.751895 ], [ -77.168574, 38.751927 ], [ -77.168378, 38.75196 ], [ -77.168193, 38.751983 ], [ -77.168006, 38.751996 ], [ -77.16783, 38.751999 ], [ -77.167782, 38.751997 ], [ -77.167327, 38.751957 ], [ -77.166888, 38.751861 ], [ -77.166534, 38.751752 ], [ -77.166386, 38.751736 ], [ -77.166366, 38.751731 ], [ -77.166202, 38.751668 ], [ -77.166136, 38.751639 ], [ -77.165935, 38.751553 ], [ -77.165727, 38.751456 ], [ -77.165597, 38.751381 ], [ -77.165473, 38.751297 ], [ -77.165376, 38.751222 ], [ -77.165295, 38.75115 ], [ -77.165176, 38.751024 ], [ -77.165052, 38.750878 ], [ -77.164818, 38.750607 ], [ -77.164713, 38.750509 ], [ -77.164609, 38.750425 ], [ -77.164487, 38.750341 ], [ -77.164344, 38.750257 ], [ -77.164229, 38.7502 ], [ -77.164, 38.750097 ], [ -77.163697, 38.750022 ], [ -77.163506, 38.74999 ], [ -77.163288, 38.749971 ], [ -77.162639, 38.749942 ], [ -77.162419, 38.749919 ], [ -77.162282, 38.749884 ], [ -77.162052, 38.749821 ], [ -77.161765, 38.749711 ], [ -77.161572, 38.749646 ], [ -77.161379, 38.749598 ], [ -77.161178, 38.749564 ], [ -77.160919, 38.749545 ], [ -77.160677, 38.74955 ], [ -77.160435, 38.749576 ], [ -77.160211, 38.749617 ], [ -77.160079, 38.74966 ], [ -77.159919, 38.749712 ], [ -77.159761, 38.74978 ], [ -77.159731, 38.749793 ], [ -77.159565, 38.749884 ], [ -77.159389, 38.750002 ], [ -77.159314, 38.75006 ], [ -77.159175, 38.750189 ], [ -77.159026, 38.750346 ], [ -77.158823, 38.75056 ], [ -77.158704, 38.750685 ], [ -77.158651, 38.750741 ], [ -77.158555, 38.750841 ], [ -77.158417, 38.750971 ], [ -77.15824, 38.751115 ], [ -77.158196, 38.751145 ], [ -77.157991, 38.751254 ], [ -77.157863, 38.751313 ], [ -77.157655, 38.751391 ], [ -77.157452, 38.751445 ], [ -77.157335, 38.751467 ], [ -77.157282, 38.751477 ], [ -77.156988, 38.751523 ], [ -77.156836, 38.751547 ], [ -77.156679, 38.751572 ], [ -77.156471, 38.751616 ], [ -77.156279, 38.751666 ], [ -77.156191, 38.751693 ], [ -77.154523, 38.752201 ], [ -77.154029, 38.752352 ], [ -77.153647, 38.752486 ], [ -77.153475, 38.752551 ], [ -77.153341, 38.752601 ], [ -77.153015, 38.752741 ], [ -77.152704, 38.752884 ], [ -77.152457, 38.753007 ], [ -77.152317, 38.753076 ], [ -77.152082, 38.753204 ], [ -77.151716, 38.75343 ], [ -77.151341, 38.753656 ], [ -77.151232, 38.753729 ], [ -77.149615, 38.754877 ], [ -77.149498, 38.754947 ], [ -77.149386, 38.755005 ], [ -77.149239, 38.755067 ], [ -77.149207, 38.755081 ], [ -77.149041, 38.755135 ], [ -77.148802, 38.755191 ], [ -77.148202, 38.755308 ], [ -77.14769, 38.755411 ], [ -77.147307, 38.755529 ], [ -77.14703, 38.755655 ], [ -77.146844, 38.755757 ], [ -77.146604, 38.755918 ], [ -77.145773, 38.7565 ], [ -77.145532, 38.75631 ], [ -77.145026, 38.755872 ], [ -77.144765, 38.755632 ], [ -77.143922, 38.754934 ], [ -77.143713, 38.75475 ], [ -77.143558, 38.754613 ], [ -77.142921, 38.753992 ], [ -77.142763, 38.753857 ], [ -77.142599, 38.753736 ], [ -77.142379, 38.753589 ], [ -77.139764, 38.751917 ], [ -77.139956, 38.751711 ], [ -77.140279, 38.75135 ], [ -77.140838, 38.750697 ], [ -77.141073, 38.750424 ], [ -77.141093, 38.750385 ], [ -77.141324, 38.750115 ], [ -77.141745, 38.749632 ], [ -77.142038, 38.749327 ], [ -77.142497, 38.748898 ], [ -77.142833, 38.748632 ], [ -77.143004, 38.748529 ], [ -77.143429, 38.748244 ], [ -77.143656, 38.748092 ], [ -77.143918, 38.747907 ], [ -77.144195, 38.747714 ], [ -77.144537, 38.7475 ], [ -77.144963, 38.747257 ], [ -77.145366, 38.746967 ], [ -77.145787, 38.74674 ], [ -77.146411, 38.746394 ], [ -77.146695, 38.746231 ], [ -77.146971, 38.746089 ], [ -77.147316, 38.7459 ], [ -77.14753, 38.745767 ], [ -77.148447, 38.745241 ], [ -77.148753, 38.745057 ], [ -77.148949, 38.744939 ], [ -77.149051, 38.744878 ], [ -77.149672, 38.744475 ], [ -77.149873, 38.744355 ], [ -77.14994, 38.744323 ], [ -77.15014, 38.744231 ], [ -77.150425, 38.744127 ], [ -77.150505, 38.744104 ], [ -77.150719, 38.744041 ], [ -77.151505, 38.743868 ], [ -77.152931, 38.743579 ], [ -77.153562, 38.743439 ], [ -77.153975, 38.743332 ], [ -77.15429, 38.743266 ], [ -77.154421, 38.743232 ], [ -77.154535, 38.743211 ], [ -77.15614, 38.742859 ], [ -77.156538, 38.742775 ], [ -77.15678, 38.742729 ], [ -77.156985, 38.742697 ], [ -77.157149, 38.74268 ], [ -77.157384, 38.742665 ], [ -77.157609, 38.742662 ], [ -77.157785, 38.742651 ], [ -77.157947, 38.742628 ], [ -77.158125, 38.74259 ], [ -77.158316, 38.742532 ], [ -77.158476, 38.74247 ], [ -77.159232, 38.742144 ], [ -77.160011, 38.741836 ], [ -77.160783, 38.741531 ], [ -77.161027, 38.741444 ], [ -77.161334, 38.741295 ], [ -77.1623, 38.7408 ], [ -77.162731, 38.740526 ], [ -77.163126, 38.74017 ], [ -77.16325, 38.740042 ], [ -77.16399, 38.739528 ], [ -77.164098, 38.739448 ], [ -77.16428, 38.739336 ], [ -77.164487, 38.739231 ], [ -77.164697, 38.739144 ], [ -77.164829, 38.739094 ], [ -77.165892, 38.738778 ], [ -77.1665, 38.73861 ], [ -77.166637, 38.738565 ], [ -77.166801, 38.738503 ], [ -77.166858, 38.738478 ], [ -77.167002, 38.738402 ], [ -77.167125, 38.738324 ], [ -77.167206, 38.738274 ], [ -77.167482, 38.738066 ], [ -77.167709, 38.737873 ], [ -77.167879, 38.73771 ], [ -77.168108, 38.73747 ], [ -77.16823, 38.737322 ], [ -77.168301, 38.737212 ], [ -77.168358, 38.737097 ], [ -77.168417, 38.736944 ], [ -77.168459, 38.736815 ], [ -77.168499, 38.736695 ], [ -77.168577, 38.736429 ], [ -77.16863, 38.736288 ], [ -77.168729, 38.73609 ], [ -77.168859, 38.735888 ], [ -77.169159, 38.735513 ], [ -77.169291, 38.735347 ], [ -77.16938, 38.735236 ], [ -77.169526, 38.735055 ], [ -77.169678, 38.734866 ], [ -77.170212, 38.73419 ], [ -77.170474, 38.733899 ], [ -77.170809, 38.733561 ], [ -77.170637, 38.733489 ], [ -77.170501, 38.733424 ], [ -77.169905, 38.733138 ], [ -77.169461, 38.732892 ], [ -77.16921, 38.732761 ], [ -77.168395, 38.732385 ], [ -77.16806, 38.73223 ], [ -77.167593, 38.732023 ], [ -77.16764, 38.73198 ], [ -77.167681, 38.731957 ], [ -77.16774, 38.731905 ], [ -77.167933, 38.731734 ], [ -77.168049, 38.731686 ], [ -77.168069, 38.731654 ], [ -77.168083, 38.731619 ], [ -77.168205, 38.731534 ], [ -77.168239, 38.731517 ], [ -77.168296, 38.731496 ], [ -77.16839, 38.731469 ], [ -77.168426, 38.731455 ], [ -77.168513, 38.731409 ], [ -77.168596, 38.731372 ], [ -77.168619, 38.731373 ], [ -77.168717, 38.731428 ], [ -77.168742, 38.731431 ], [ -77.168765, 38.731419 ], [ -77.168776, 38.731401 ], [ -77.168788, 38.731361 ], [ -77.168838, 38.731279 ], [ -77.168862, 38.731266 ], [ -77.168932, 38.731255 ], [ -77.168994, 38.731224 ], [ -77.169078, 38.731193 ], [ -77.169146, 38.731176 ], [ -77.169187, 38.731148 ], [ -77.169269, 38.731065 ], [ -77.169289, 38.731031 ], [ -77.169339, 38.730896 ], [ -77.16945, 38.730798 ], [ -77.169461, 38.730767 ], [ -77.169458, 38.73072 ], [ -77.169415, 38.730656 ], [ -77.169411, 38.730619 ], [ -77.169423, 38.730582 ], [ -77.169483, 38.730496 ], [ -77.169532, 38.730455 ], [ -77.16959, 38.730424 ], [ -77.169627, 38.730385 ], [ -77.169637, 38.730359 ], [ -77.169648, 38.730307 ], [ -77.169677, 38.730239 ], [ -77.169742, 38.730142 ], [ -77.169774, 38.730107 ], [ -77.169926, 38.729968 ], [ -77.169958, 38.72995 ], [ -77.170175, 38.729882 ], [ -77.170261, 38.729865 ], [ -77.170314, 38.729842 ], [ -77.170429, 38.729776 ], [ -77.170534, 38.729732 ], [ -77.17072, 38.729636 ], [ -77.170826, 38.729587 ], [ -77.17091, 38.729581 ], [ -77.171002, 38.729539 ], [ -77.171149, 38.729461 ], [ -77.171285, 38.729401 ], [ -77.171394, 38.729336 ], [ -77.171434, 38.729326 ], [ -77.171525, 38.729328 ], [ -77.171551, 38.729322 ], [ -77.17157, 38.729309 ], [ -77.171597, 38.729277 ], [ -77.171646, 38.729259 ], [ -77.171683, 38.729232 ], [ -77.171747, 38.729185 ], [ -77.171786, 38.729146 ], [ -77.171797, 38.729123 ], [ -77.17177, 38.729064 ], [ -77.171785, 38.729034 ], [ -77.171812, 38.729011 ], [ -77.171835, 38.729 ], [ -77.171859, 38.729 ], [ -77.171902, 38.729011 ], [ -77.171952, 38.72903 ], [ -77.17202, 38.728942 ], [ -77.172034, 38.728914 ], [ -77.172033, 38.728893 ], [ -77.172011, 38.728869 ], [ -77.171943, 38.728821 ], [ -77.17194, 38.728784 ], [ -77.171954, 38.728701 ], [ -77.172051, 38.728518 ], [ -77.172074, 38.728451 ], [ -77.172085, 38.728371 ], [ -77.17208, 38.728344 ], [ -77.172061, 38.72831 ], [ -77.172057, 38.72825 ], [ -77.172079, 38.728214 ], [ -77.172154, 38.728137 ], [ -77.172165, 38.728121 ], [ -77.172128, 38.728058 ], [ -77.172132, 38.728013 ], [ -77.172155, 38.727951 ], [ -77.172231, 38.727809 ], [ -77.17224, 38.727759 ], [ -77.172233, 38.727694 ], [ -77.172243, 38.72765 ], [ -77.172245, 38.727588 ], [ -77.17224, 38.727527 ], [ -77.172274, 38.727411 ], [ -77.172414, 38.727208 ], [ -77.172445, 38.727133 ], [ -77.172443, 38.727093 ], [ -77.172476, 38.727016 ], [ -77.172501, 38.726921 ], [ -77.1725, 38.726892 ], [ -77.172476, 38.726868 ], [ -77.172441, 38.726846 ], [ -77.172425, 38.726819 ], [ -77.172418, 38.726769 ], [ -77.172436, 38.726663 ], [ -77.172456, 38.726628 ], [ -77.17249, 38.72659 ], [ -77.172525, 38.726561 ], [ -77.172526, 38.726543 ], [ -77.172459, 38.72647 ], [ -77.17245, 38.726444 ], [ -77.172453, 38.726415 ], [ -77.172471, 38.726373 ], [ -77.172456, 38.726286 ], [ -77.172464, 38.72625 ], [ -77.172496, 38.726207 ], [ -77.172548, 38.726152 ], [ -77.172558, 38.726135 ], [ -77.172518, 38.726107 ], [ -77.172446, 38.726081 ], [ -77.172391, 38.726044 ], [ -77.172381, 38.726026 ], [ -77.172385, 38.726001 ], [ -77.172417, 38.725923 ], [ -77.172441, 38.725897 ], [ -77.172525, 38.725824 ], [ -77.172554, 38.725662 ], [ -77.172597, 38.725587 ], [ -77.172628, 38.72556 ], [ -77.172747, 38.725504 ], [ -77.172797, 38.725477 ], [ -77.17282, 38.725454 ], [ -77.172827, 38.725433 ], [ -77.172821, 38.725402 ], [ -77.172794, 38.725363 ], [ -77.172756, 38.725347 ], [ -77.172713, 38.725302 ], [ -77.172714, 38.725284 ], [ -77.172738, 38.725268 ], [ -77.172934, 38.725225 ], [ -77.172951, 38.725212 ], [ -77.172992, 38.725147 ], [ -77.172999, 38.72512 ], [ -77.172992, 38.725018 ], [ -77.173, 38.724984 ], [ -77.173026, 38.724972 ], [ -77.173049, 38.724969 ], [ -77.173188, 38.724967 ], [ -77.17321, 38.724959 ], [ -77.173222, 38.724943 ], [ -77.173232, 38.724895 ], [ -77.173223, 38.724863 ], [ -77.173156, 38.724813 ], [ -77.173146, 38.724756 ], [ -77.173104, 38.724675 ], [ -77.173105, 38.72464 ], [ -77.173125, 38.724572 ], [ -77.173181, 38.724459 ], [ -77.17321, 38.724436 ], [ -77.173292, 38.724384 ], [ -77.17332, 38.724355 ], [ -77.173324, 38.724318 ], [ -77.173294, 38.724229 ], [ -77.173259, 38.724159 ], [ -77.173223, 38.724111 ], [ -77.173209, 38.724061 ], [ -77.17321, 38.723942 ], [ -77.173223, 38.723925 ], [ -77.173248, 38.723919 ], [ -77.173299, 38.723918 ], [ -77.173349, 38.723904 ], [ -77.173381, 38.723887 ], [ -77.173404, 38.723863 ], [ -77.173419, 38.723833 ], [ -77.17343, 38.723792 ], [ -77.173452, 38.723652 ], [ -77.173475, 38.723584 ], [ -77.173497, 38.723522 ], [ -77.173504, 38.723433 ], [ -77.173508, 38.723266 ], [ -77.173519, 38.723195 ], [ -77.173536, 38.723156 ], [ -77.173541, 38.723072 ], [ -77.173533, 38.722866 ], [ -77.173545, 38.72285 ], [ -77.173585, 38.72283 ], [ -77.173647, 38.722817 ], [ -77.173669, 38.7228 ], [ -77.173688, 38.722771 ], [ -77.173707, 38.722717 ], [ -77.1737, 38.722693 ], [ -77.173682, 38.722681 ], [ -77.173621, 38.722673 ], [ -77.173579, 38.722644 ], [ -77.173565, 38.722614 ], [ -77.173575, 38.722597 ], [ -77.173597, 38.722588 ], [ -77.173656, 38.722599 ], [ -77.173747, 38.722595 ], [ -77.173778, 38.722585 ], [ -77.173826, 38.722557 ], [ -77.173861, 38.722523 ], [ -77.173876, 38.722492 ], [ -77.173891, 38.722426 ], [ -77.173886, 38.722389 ], [ -77.173834, 38.722338 ], [ -77.173807, 38.722301 ], [ -77.173766, 38.722295 ], [ -77.173763, 38.722277 ], [ -77.173783, 38.722242 ], [ -77.173832, 38.722177 ], [ -77.173883, 38.722071 ], [ -77.173915, 38.721975 ], [ -77.175855, 38.722338 ], [ -77.178707, 38.72287 ], [ -77.178933, 38.722922 ], [ -77.179155, 38.722986 ], [ -77.179372, 38.72306 ], [ -77.179571, 38.723148 ], [ -77.179762, 38.723246 ], [ -77.179945, 38.723353 ], [ -77.180295, 38.723588 ], [ -77.180557, 38.723775 ], [ -77.182188, 38.724962 ], [ -77.182332, 38.725079 ], [ -77.182415, 38.725148 ], [ -77.18256, 38.725285 ], [ -77.1827, 38.725444 ], [ -77.182799, 38.725573 ], [ -77.182887, 38.725707 ], [ -77.182967, 38.72585 ], [ -77.183037, 38.725999 ], [ -77.183096, 38.726146 ], [ -77.183142, 38.726298 ], [ -77.183176, 38.726451 ], [ -77.183209, 38.726742 ], [ -77.183392, 38.730099 ], [ -77.183421, 38.730542 ], [ -77.183448, 38.730725 ], [ -77.183491, 38.730906 ], [ -77.183549, 38.731084 ], [ -77.183612, 38.731231 ], [ -77.183687, 38.731373 ], [ -77.183774, 38.731511 ], [ -77.183893, 38.73167 ], [ -77.184474, 38.732378 ], [ -77.18474, 38.732689 ], [ -77.184887, 38.732861 ], [ -77.185003, 38.733054 ], [ -77.185111, 38.733202 ], [ -77.185921, 38.734187 ], [ -77.186, 38.734306 ], [ -77.186068, 38.734429 ], [ -77.186151, 38.734619 ], [ -77.186212, 38.734813 ], [ -77.186239, 38.734945 ], [ -77.186259, 38.735144 ], [ -77.186266, 38.735299 ], [ -77.186261, 38.735509 ] ] ] } },
{ "type": "Feature", "properties": { "STATEFP": "51", "COUNTYFP": "059", "TRACTCE": "422403", "GEOID": "51059422403", "GEOIDFQ": "1400000US51059422403", "NAME_x": "4224.03", "NAMELSAD": "Census Tract 4224.03", "MTFCC": "G5020", "FUNCSTAT": "S", "ALAND": 2179011, "AWATER": 38697, "INTPTLAT": "+38.7732200", "INTPTLON": "-077.1214125", "bbox_west": -77.167532, "bbox_south": 38.740042, "bbox_east": -77.121969, "bbox_north": 38.784071, "place_id": 347794220, "osm_type": "relation", "osm_id": 18347702, "lat": 38.762132, "lon": -77.1444093, "class": "boundary", "type": "census", "place_rank": 25, "importance": 0.37858398060478177, "addresstype": "census", "name": "Kingstowne", "display_name": "Kingstowne, Fairfax County, Virginia, United States", "NAME_y": "4224.03", "median_income": 236012, "no_vehicle_households": 0, "population": 3186, "state": "51", "county": "059", "tract": "422403" }, "geometry": { "type": "Polygon", "coordinates": [ [ [ -77.133272, 38.760756 ], [ -77.13321, 38.760789 ], [ -77.133139, 38.7608 ], [ -77.132979, 38.760902 ], [ -77.13279, 38.761029 ], [ -77.132561, 38.761178 ], [ -77.132532, 38.761223 ], [ -77.132498, 38.761257 ], [ -77.132011, 38.761583 ], [ -77.13181, 38.761719 ], [ -77.131047, 38.762218 ], [ -77.130625, 38.762473 ], [ -77.130088, 38.7628 ], [ -77.129674, 38.763052 ], [ -77.128869, 38.763487 ], [ -77.127524, 38.764223 ], [ -77.127061, 38.764485 ], [ -77.126594, 38.764741 ], [ -77.126447, 38.764817 ], [ -77.126101, 38.765012 ], [ -77.125692, 38.765233 ], [ -77.125348, 38.765391 ], [ -77.124858, 38.765607 ], [ -77.124324, 38.765845 ], [ -77.124179, 38.765907 ], [ -77.123997, 38.765986 ], [ -77.123906, 38.766027 ], [ -77.123943, 38.766077 ], [ -77.124161, 38.766374 ], [ -77.12437, 38.766668 ], [ -77.124498, 38.767209 ], [ -77.12448, 38.767603 ], [ -77.124475, 38.767663 ], [ -77.1247, 38.768173 ], [ -77.125118, 38.768686 ], [ -77.125172, 38.768727 ], [ -77.125648, 38.769135 ], [ -77.126114, 38.769385 ], [ -77.12618, 38.769422 ], [ -77.127501, 38.769793 ], [ -77.127675, 38.769829 ], [ -77.128624, 38.770067 ], [ -77.128825, 38.770129 ], [ -77.128971, 38.770182 ], [ -77.129024, 38.770202 ], [ -77.129173, 38.770266 ], [ -77.129241, 38.770295 ], [ -77.129446, 38.770398 ], [ -77.129465, 38.770409 ], [ -77.129622, 38.7705 ], [ -77.12981, 38.770626 ], [ -77.129976, 38.770757 ], [ -77.13018, 38.770948 ], [ -77.130423, 38.771218 ], [ -77.130515, 38.77131 ], [ -77.130621, 38.771394 ], [ -77.130699, 38.771468 ], [ -77.130946, 38.771767 ], [ -77.131119, 38.77196 ], [ -77.131212, 38.772055 ], [ -77.131367, 38.772172 ], [ -77.131705, 38.772439 ], [ -77.132237, 38.772834 ], [ -77.131368, 38.773535 ], [ -77.128926, 38.774982 ], [ -77.128329, 38.775338 ], [ -77.127866, 38.775565 ], [ -77.127412, 38.775773 ], [ -77.127317, 38.775826 ], [ -77.127009, 38.775978 ], [ -77.125247, 38.777093 ], [ -77.122769, 38.778895 ], [ -77.12214, 38.779253 ], [ -77.120492, 38.779949 ], [ -77.119288, 38.780458 ], [ -77.117901, 38.780991 ], [ -77.117544, 38.780431 ], [ -77.117143, 38.779804 ], [ -77.117123, 38.779784 ], [ -77.117051, 38.77967 ], [ -77.116873, 38.779378 ], [ -77.116788, 38.779257 ], [ -77.116707, 38.779161 ], [ -77.116574, 38.779026 ], [ -77.116465, 38.778931 ], [ -77.116399, 38.778882 ], [ -77.116225, 38.778777 ], [ -77.116083, 38.778691 ], [ -77.116028, 38.778663 ], [ -77.115895, 38.778607 ], [ -77.11576, 38.778559 ], [ -77.114481, 38.778191 ], [ -77.113801, 38.777999 ], [ -77.11357, 38.777927 ], [ -77.113325, 38.777806 ], [ -77.113252, 38.777763 ], [ -77.113123, 38.777678 ], [ -77.112899, 38.777509 ], [ -77.112741, 38.777317 ], [ -77.112667, 38.777213 ], [ -77.112594, 38.777085 ], [ -77.112544, 38.776973 ], [ -77.112506, 38.776866 ], [ -77.112388, 38.776449 ], [ -77.112244, 38.775928 ], [ -77.11216, 38.775652 ], [ -77.112114, 38.775528 ], [ -77.112015, 38.775347 ], [ -77.111919, 38.775177 ], [ -77.111829, 38.775056 ], [ -77.11136, 38.774506 ], [ -77.111493, 38.77443 ], [ -77.111818, 38.774254 ], [ -77.11191, 38.774196 ], [ -77.112, 38.774129 ], [ -77.112106, 38.774038 ], [ -77.112214, 38.773934 ], [ -77.112673, 38.773431 ], [ -77.11279, 38.77332 ], [ -77.112893, 38.773238 ], [ -77.112925, 38.773217 ], [ -77.112943, 38.773206 ], [ -77.113073, 38.773145 ], [ -77.11469, 38.772246 ], [ -77.115201, 38.771968 ], [ -77.11546, 38.771816 ], [ -77.115593, 38.771743 ], [ -77.115865, 38.771593 ], [ -77.115977, 38.771532 ], [ -77.116303, 38.771335 ], [ -77.116449, 38.77124 ], [ -77.116651, 38.771093 ], [ -77.1167, 38.771047 ], [ -77.117234, 38.77064 ], [ -77.117873, 38.770129 ], [ -77.118148, 38.769919 ], [ -77.119112, 38.769245 ], [ -77.119227, 38.769159 ], [ -77.119339, 38.769052 ], [ -77.119509, 38.768914 ], [ -77.119798, 38.76868 ], [ -77.120243, 38.768282 ], [ -77.120458, 38.768055 ], [ -77.120515, 38.768006 ], [ -77.120722, 38.76775 ], [ -77.120881, 38.767544 ], [ -77.121186, 38.767288 ], [ -77.121316, 38.767221 ], [ -77.121508, 38.767131 ], [ -77.121473, 38.76709 ], [ -77.121458, 38.76707 ], [ -77.121414, 38.767047 ], [ -77.121365, 38.767027 ], [ -77.121331, 38.767011 ], [ -77.121259, 38.766904 ], [ -77.121205, 38.766849 ], [ -77.121125, 38.766821 ], [ -77.121082, 38.766759 ], [ -77.121039, 38.76674 ], [ -77.120969, 38.766724 ], [ -77.120919, 38.766721 ], [ -77.12084, 38.766688 ], [ -77.120819, 38.766669 ], [ -77.120811, 38.76662 ], [ -77.120813, 38.766517 ], [ -77.120868, 38.766435 ], [ -77.120864, 38.766412 ], [ -77.120833, 38.766387 ], [ -77.120801, 38.766376 ], [ -77.120691, 38.766376 ], [ -77.120664, 38.766341 ], [ -77.120644, 38.766277 ], [ -77.12065, 38.766247 ], [ -77.120614, 38.766174 ], [ -77.120535, 38.766093 ], [ -77.120503, 38.766072 ], [ -77.12049, 38.766042 ], [ -77.120492, 38.765955 ], [ -77.120514, 38.765806 ], [ -77.120543, 38.765678 ], [ -77.12053, 38.765594 ], [ -77.12046, 38.76549 ], [ -77.120453, 38.765422 ], [ -77.120463, 38.765362 ], [ -77.12045, 38.765311 ], [ -77.12039, 38.765163 ], [ -77.120379, 38.765126 ], [ -77.120342, 38.765098 ], [ -77.120215, 38.765044 ], [ -77.120167, 38.764968 ], [ -77.120163, 38.764936 ], [ -77.12018, 38.764879 ], [ -77.120203, 38.764832 ], [ -77.120243, 38.764774 ], [ -77.120283, 38.764747 ], [ -77.120306, 38.764742 ], [ -77.120366, 38.764741 ], [ -77.120424, 38.764746 ], [ -77.120446, 38.764739 ], [ -77.120474, 38.764711 ], [ -77.120482, 38.764694 ], [ -77.120508, 38.764661 ], [ -77.12055, 38.764634 ], [ -77.120586, 38.764618 ], [ -77.12061, 38.764599 ], [ -77.120613, 38.764569 ], [ -77.120584, 38.764544 ], [ -77.120525, 38.764508 ], [ -77.120503, 38.764483 ], [ -77.120431, 38.764444 ], [ -77.120417, 38.764421 ], [ -77.120406, 38.764385 ], [ -77.120404, 38.76435 ], [ -77.120364, 38.764251 ], [ -77.120292, 38.764124 ], [ -77.120294, 38.764104 ], [ -77.120316, 38.764077 ], [ -77.120387, 38.764021 ], [ -77.120388, 38.764003 ], [ -77.120352, 38.763936 ], [ -77.120339, 38.763921 ], [ -77.120331, 38.763889 ], [ -77.120326, 38.763814 ], [ -77.120309, 38.763798 ], [ -77.120261, 38.763778 ], [ -77.120204, 38.763771 ], [ -77.120166, 38.763754 ], [ -77.120151, 38.763734 ], [ -77.120122, 38.763628 ], [ -77.120128, 38.763601 ], [ -77.120164, 38.763547 ], [ -77.120266, 38.763494 ], [ -77.120279, 38.763476 ], [ -77.120271, 38.763453 ], [ -77.120231, 38.763407 ], [ -77.120283, 38.76325 ], [ -77.12029, 38.763181 ], [ -77.120217, 38.763126 ], [ -77.120206, 38.763109 ], [ -77.120164, 38.763008 ], [ -77.120105, 38.762981 ], [ -77.120052, 38.762943 ], [ -77.120049, 38.762921 ], [ -77.120055, 38.762856 ], [ -77.12005, 38.762723 ], [ -77.120049, 38.762692 ], [ -77.120061, 38.762676 ], [ -77.120147, 38.762628 ], [ -77.120175, 38.762585 ], [ -77.120193, 38.762527 ], [ -77.120197, 38.762459 ], [ -77.120171, 38.762339 ], [ -77.120156, 38.762291 ], [ -77.120156, 38.762256 ], [ -77.120185, 38.762233 ], [ -77.120229, 38.762237 ], [ -77.120271, 38.762255 ], [ -77.120346, 38.762309 ], [ -77.120377, 38.762305 ], [ -77.120407, 38.762271 ], [ -77.12043, 38.762152 ], [ -77.120426, 38.762052 ], [ -77.120438, 38.762033 ], [ -77.120465, 38.762023 ], [ -77.120626, 38.762019 ], [ -77.120641, 38.762001 ], [ -77.120642, 38.761977 ], [ -77.120637, 38.76195 ], [ -77.120662, 38.761907 ], [ -77.120722, 38.761854 ], [ -77.120826, 38.761789 ], [ -77.120884, 38.761733 ], [ -77.120929, 38.76169 ], [ -77.120962, 38.761672 ], [ -77.12098, 38.761646 ], [ -77.121005, 38.761533 ], [ -77.121031, 38.761508 ], [ -77.121108, 38.761449 ], [ -77.121222, 38.761337 ], [ -77.121265, 38.761312 ], [ -77.121329, 38.761292 ], [ -77.121328, 38.761328 ], [ -77.12135, 38.761336 ], [ -77.121382, 38.761331 ], [ -77.121405, 38.761314 ], [ -77.121413, 38.761283 ], [ -77.121403, 38.761266 ], [ -77.12137, 38.761237 ], [ -77.12136, 38.761217 ], [ -77.121376, 38.761192 ], [ -77.121399, 38.761179 ], [ -77.12144, 38.761164 ], [ -77.12145, 38.761147 ], [ -77.121451, 38.761088 ], [ -77.121464, 38.76107 ], [ -77.121527, 38.761043 ], [ -77.121642, 38.761032 ], [ -77.121675, 38.76101 ], [ -77.1217, 38.760986 ], [ -77.121727, 38.76098 ], [ -77.121795, 38.761044 ], [ -77.121819, 38.761044 ], [ -77.121879, 38.761021 ], [ -77.121881, 38.761003 ], [ -77.121853, 38.760921 ], [ -77.121819, 38.760867 ], [ -77.121819, 38.760841 ], [ -77.121906, 38.76069 ], [ -77.121928, 38.760677 ], [ -77.121952, 38.760679 ], [ -77.122051, 38.760706 ], [ -77.122088, 38.760689 ], [ -77.122128, 38.760702 ], [ -77.122151, 38.760698 ], [ -77.122162, 38.76067 ], [ -77.12216, 38.760628 ], [ -77.122148, 38.760582 ], [ -77.122149, 38.760536 ], [ -77.122268, 38.760298 ], [ -77.122316, 38.760284 ], [ -77.122374, 38.760257 ], [ -77.122383, 38.76024 ], [ -77.122366, 38.760084 ], [ -77.122371, 38.760065 ], [ -77.122395, 38.760053 ], [ -77.12241, 38.760035 ], [ -77.122425, 38.759953 ], [ -77.122399, 38.759921 ], [ -77.122384, 38.759895 ], [ -77.122393, 38.759872 ], [ -77.122419, 38.759847 ], [ -77.122426, 38.759819 ], [ -77.122423, 38.759792 ], [ -77.122411, 38.759774 ], [ -77.12235, 38.759714 ], [ -77.122332, 38.759674 ], [ -77.122324, 38.759605 ], [ -77.122332, 38.759558 ], [ -77.122349, 38.759526 ], [ -77.122392, 38.759485 ], [ -77.122403, 38.759469 ], [ -77.122512, 38.759443 ], [ -77.122546, 38.759426 ], [ -77.122562, 38.759409 ], [ -77.122584, 38.759328 ], [ -77.122589, 38.759125 ], [ -77.122601, 38.759072 ], [ -77.122654, 38.758981 ], [ -77.122746, 38.758709 ], [ -77.122836, 38.758573 ], [ -77.12289, 38.758522 ], [ -77.122959, 38.758478 ], [ -77.122962, 38.758448 ], [ -77.12294, 38.758392 ], [ -77.122906, 38.758331 ], [ -77.122886, 38.758263 ], [ -77.122866, 38.758218 ], [ -77.12287, 38.758157 ], [ -77.122934, 38.758063 ], [ -77.122943, 38.758032 ], [ -77.122955, 38.757925 ], [ -77.122978, 38.75792 ], [ -77.12304, 38.757932 ], [ -77.123118, 38.757955 ], [ -77.123201, 38.757964 ], [ -77.123231, 38.757962 ], [ -77.123247, 38.757948 ], [ -77.123258, 38.757852 ], [ -77.12325, 38.757817 ], [ -77.123217, 38.757748 ], [ -77.12322, 38.75773 ], [ -77.123241, 38.757722 ], [ -77.12329, 38.757726 ], [ -77.123343, 38.757779 ], [ -77.123428, 38.757807 ], [ -77.123479, 38.757801 ], [ -77.123516, 38.75779 ], [ -77.123553, 38.757764 ], [ -77.123583, 38.757726 ], [ -77.123587, 38.757696 ], [ -77.123579, 38.75767 ], [ -77.12356, 38.757651 ], [ -77.123514, 38.757632 ], [ -77.123449, 38.757595 ], [ -77.123439, 38.757571 ], [ -77.123452, 38.757543 ], [ -77.123509, 38.757485 ], [ -77.123712, 38.75734 ], [ -77.12372, 38.757309 ], [ -77.123716, 38.757284 ], [ -77.123696, 38.757258 ], [ -77.123662, 38.757238 ], [ -77.123521, 38.757217 ], [ -77.123498, 38.757204 ], [ -77.123483, 38.757184 ], [ -77.123508, 38.757147 ], [ -77.123531, 38.757142 ], [ -77.123668, 38.757146 ], [ -77.123712, 38.757127 ], [ -77.12371, 38.757037 ], [ -77.123731, 38.757015 ], [ -77.123835, 38.756968 ], [ -77.123858, 38.756953 ], [ -77.12383, 38.756903 ], [ -77.123739, 38.756785 ], [ -77.123714, 38.756737 ], [ -77.123718, 38.756713 ], [ -77.123745, 38.756697 ], [ -77.1238, 38.756692 ], [ -77.123904, 38.756694 ], [ -77.123949, 38.756691 ], [ -77.123957, 38.75667 ], [ -77.123876, 38.756559 ], [ -77.123846, 38.756528 ], [ -77.123824, 38.756488 ], [ -77.12383, 38.756465 ], [ -77.124442, 38.756524 ], [ -77.125411, 38.756668 ], [ -77.125595, 38.756696 ], [ -77.126306, 38.757185 ], [ -77.128423, 38.75891 ], [ -77.129915, 38.757493 ], [ -77.13345, 38.760643 ], [ -77.133272, 38.760756 ] ] ] } },
{ "type": "Feature", "properties": { "STATEFP": "51", "COUNTYFP": "059", "TRACTCE": "422402", "GEOID": "51059422402", "GEOIDFQ": "1400000US51059422402", "NAME_x": "4224.02", "NAMELSAD": "Census Tract 4224.02", "MTFCC": "G5020", "FUNCSTAT": "S", "ALAND": 1891110, "AWATER": 2060, "INTPTLAT": "+38.7652763", "INTPTLON": "-077.1320516", "bbox_west": -77.167532, "bbox_south": 38.740042, "bbox_east": -77.121969, "bbox_north": 38.784071, "place_id": 347794220, "osm_type": "relation", "osm_id": 18347702, "lat": 38.762132, "lon": -77.1444093, "class": "boundary", "type": "census", "place_rank": 25, "importance": 0.37858398060478177, "addresstype": "census", "name": "Kingstowne", "display_name": "Kingstowne, Fairfax County, Virginia, United States", "NAME_y": "4224.02", "median_income": 151451, "no_vehicle_households": 54, "population": 4984, "state": "51", "county": "059", "tract": "422402" }, "geometry": { "type": "Polygon", "coordinates": [ [ [ -77.145773, 38.7565 ], [ -77.145238, 38.756872 ], [ -77.145096, 38.756989 ], [ -77.144957, 38.757123 ], [ -77.144793, 38.757319 ], [ -77.144294, 38.757971 ], [ -77.144135, 38.758189 ], [ -77.144025, 38.758427 ], [ -77.143977, 38.758551 ], [ -77.14393, 38.758723 ], [ -77.143677, 38.759899 ], [ -77.14354, 38.760614 ], [ -77.143418, 38.761504 ], [ -77.143356, 38.761716 ], [ -77.143264, 38.761921 ], [ -77.143195, 38.76204 ], [ -77.14311, 38.762165 ], [ -77.143021, 38.762276 ], [ -77.142915, 38.76239 ], [ -77.142799, 38.762498 ], [ -77.142683, 38.76259 ], [ -77.142549, 38.762683 ], [ -77.142399, 38.762767 ], [ -77.142321, 38.762811 ], [ -77.142079, 38.762926 ], [ -77.141804, 38.763057 ], [ -77.141693, 38.763123 ], [ -77.141507, 38.763253 ], [ -77.141338, 38.763398 ], [ -77.141228, 38.76351 ], [ -77.141123, 38.763636 ], [ -77.140987, 38.763835 ], [ -77.140828, 38.764071 ], [ -77.140744, 38.764181 ], [ -77.140628, 38.764314 ], [ -77.140494, 38.764451 ], [ -77.140331, 38.764599 ], [ -77.139996, 38.764862 ], [ -77.139819, 38.765003 ], [ -77.139616, 38.765204 ], [ -77.139443, 38.765479 ], [ -77.139403, 38.765592 ], [ -77.139374, 38.765717 ], [ -77.139362, 38.76584 ], [ -77.139372, 38.765975 ], [ -77.139389, 38.766052 ], [ -77.139419, 38.766188 ], [ -77.139451, 38.766288 ], [ -77.13949, 38.766373 ], [ -77.139503, 38.766391 ], [ -77.139605, 38.766535 ], [ -77.139756, 38.766702 ], [ -77.140011, 38.766983 ], [ -77.140965, 38.76804 ], [ -77.139809, 38.768675 ], [ -77.13918, 38.769021 ], [ -77.134872, 38.77139 ], [ -77.132445, 38.772719 ], [ -77.132237, 38.772834 ], [ -77.131705, 38.772439 ], [ -77.131367, 38.772172 ], [ -77.131212, 38.772055 ], [ -77.131119, 38.77196 ], [ -77.130946, 38.771767 ], [ -77.130699, 38.771468 ], [ -77.130621, 38.771394 ], [ -77.130515, 38.77131 ], [ -77.130423, 38.771218 ], [ -77.13018, 38.770948 ], [ -77.129976, 38.770757 ], [ -77.12981, 38.770626 ], [ -77.129622, 38.7705 ], [ -77.129465, 38.770409 ], [ -77.129446, 38.770398 ], [ -77.129241, 38.770295 ], [ -77.129173, 38.770266 ], [ -77.129024, 38.770202 ], [ -77.128971, 38.770182 ], [ -77.128825, 38.770129 ], [ -77.128624, 38.770067 ], [ -77.127675, 38.769829 ], [ -77.127501, 38.769793 ], [ -77.12618, 38.769422 ], [ -77.126114, 38.769385 ], [ -77.125648, 38.769135 ], [ -77.125172, 38.768727 ], [ -77.125118, 38.768686 ], [ -77.1247, 38.768173 ], [ -77.124475, 38.767663 ], [ -77.12448, 38.767603 ], [ -77.124498, 38.767209 ], [ -77.12437, 38.766668 ], [ -77.124161, 38.766374 ], [ -77.123943, 38.766077 ], [ -77.123906, 38.766027 ], [ -77.123997, 38.765986 ], [ -77.124179, 38.765907 ], [ -77.124324, 38.765845 ], [ -77.124858, 38.765607 ], [ -77.125348, 38.765391 ], [ -77.125692, 38.765233 ], [ -77.126101, 38.765012 ], [ -77.126447, 38.764817 ], [ -77.126594, 38.764741 ], [ -77.127061, 38.764485 ], [ -77.127524, 38.764223 ], [ -77.128869, 38.763487 ], [ -77.129674, 38.763052 ], [ -77.130088, 38.7628 ], [ -77.130625, 38.762473 ], [ -77.131047, 38.762218 ], [ -77.13181, 38.761719 ], [ -77.132011, 38.761583 ], [ -77.132498, 38.761257 ], [ -77.132532, 38.761223 ], [ -77.132561, 38.761178 ], [ -77.13279, 38.761029 ], [ -77.132979, 38.760902 ], [ -77.133139, 38.7608 ], [ -77.13321, 38.760789 ], [ -77.133272, 38.760756 ], [ -77.13345, 38.760643 ], [ -77.133878, 38.760372 ], [ -77.13424, 38.76012 ], [ -77.134753, 38.759497 ], [ -77.134958, 38.759218 ], [ -77.135042, 38.759117 ], [ -77.135182, 38.758916 ], [ -77.135484, 38.758509 ], [ -77.135583, 38.758393 ], [ -77.136062, 38.757773 ], [ -77.136212, 38.75754 ], [ -77.136297, 38.757425 ], [ -77.136528, 38.757145 ], [ -77.136556, 38.75709 ], [ -77.136629, 38.756991 ], [ -77.136685, 38.756895 ], [ -77.136773, 38.75677 ], [ -77.13685, 38.756674 ], [ -77.136982, 38.756529 ], [ -77.13704, 38.756443 ], [ -77.1371, 38.756336 ], [ -77.137166, 38.756185 ], [ -77.137213, 38.756012 ], [ -77.137243, 38.755874 ], [ -77.137269, 38.755751 ], [ -77.137267, 38.755664 ], [ -77.137282, 38.755577 ], [ -77.137331, 38.755418 ], [ -77.137406, 38.755227 ], [ -77.137475, 38.755053 ], [ -77.137561, 38.754877 ], [ -77.137779, 38.754556 ], [ -77.138202, 38.753938 ], [ -77.138315, 38.753774 ], [ -77.138698, 38.753232 ], [ -77.13882, 38.753069 ], [ -77.138876, 38.752996 ], [ -77.139218, 38.752585 ], [ -77.139609, 38.752119 ], [ -77.139764, 38.751917 ], [ -77.142379, 38.753589 ], [ -77.142599, 38.753736 ], [ -77.142763, 38.753857 ], [ -77.142921, 38.753992 ], [ -77.143558, 38.754613 ], [ -77.143713, 38.75475 ], [ -77.143922, 38.754934 ], [ -77.144765, 38.755632 ], [ -77.145026, 38.755872 ], [ -77.145532, 38.75631 ], [ -77.145773, 38.7565 ] ] ] } },
{ "type": "Feature", "properties": { "STATEFP": "51", "COUNTYFP": "059", "TRACTCE": "421102", "GEOID": "51059421102", "GEOIDFQ": "1400000US51059421102", "NAME_x": "4211.02", "NAMELSAD": "Census Tract 4211.02", "MTFCC": "G5020", "FUNCSTAT": "S", "ALAND": 1564179, "AWATER": 6389, "INTPTLAT": "+38.7541324", "INTPTLON": "-077.1557476", "bbox_west": -77.167532, "bbox_south": 38.740042, "bbox_east": -77.121969, "bbox_north": 38.784071, "place_id": 347794220, "osm_type": "relation", "osm_id": 18347702, "lat": 38.762132, "lon": -77.1444093, "class": "boundary", "type": "census", "place_rank": 25, "importance": 0.37858398060478177, "addresstype": "census", "name": "Kingstowne", "display_name": "Kingstowne, Fairfax County, Virginia, United States", "NAME_y": "4211.02", "median_income": 150929, "no_vehicle_households": 130, "population": 3611, "state": "51", "county": "059", "tract": "421102" }, "geometry": { "type": "Polygon", "coordinates": [ [ [ -77.166136, 38.751639 ], [ -77.165666, 38.752542 ], [ -77.165512, 38.752823 ], [ -77.164938, 38.753986 ], [ -77.16465, 38.754485 ], [ -77.164496, 38.754797 ], [ -77.164426, 38.754906 ], [ -77.164118, 38.755453 ], [ -77.163934, 38.755782 ], [ -77.163283, 38.756968 ], [ -77.163127, 38.757232 ], [ -77.163044, 38.757357 ], [ -77.162837, 38.757628 ], [ -77.162726, 38.757754 ], [ -77.161799, 38.758143 ], [ -77.161632, 38.758212 ], [ -77.161405, 38.758319 ], [ -77.16118, 38.758437 ], [ -77.160997, 38.758566 ], [ -77.160777, 38.758742 ], [ -77.160651, 38.758851 ], [ -77.160531, 38.758966 ], [ -77.1603, 38.759208 ], [ -77.160026, 38.759514 ], [ -77.15981, 38.759746 ], [ -77.159592, 38.759951 ], [ -77.159429, 38.760119 ], [ -77.159112, 38.760461 ], [ -77.158776, 38.760851 ], [ -77.158595, 38.761062 ], [ -77.158241, 38.761436 ], [ -77.15771, 38.762046 ], [ -77.157222, 38.762647 ], [ -77.156842, 38.763115 ], [ -77.156513, 38.763622 ], [ -77.15633, 38.763989 ], [ -77.156079, 38.764644 ], [ -77.155852, 38.765124 ], [ -77.155748, 38.765417 ], [ -77.155407, 38.765343 ], [ -77.154929, 38.765166 ], [ -77.154648, 38.765021 ], [ -77.154271, 38.764825 ], [ -77.153825, 38.764579 ], [ -77.153565, 38.764445 ], [ -77.153333, 38.764353 ], [ -77.153012, 38.764193 ], [ -77.152691, 38.764047 ], [ -77.152334, 38.763932 ], [ -77.151908, 38.763837 ], [ -77.151717, 38.763801 ], [ -77.151377, 38.763759 ], [ -77.151388, 38.763706 ], [ -77.151413, 38.763582 ], [ -77.151425, 38.763445 ], [ -77.151421, 38.763385 ], [ -77.1514, 38.763281 ], [ -77.151368, 38.763179 ], [ -77.151325, 38.763081 ], [ -77.151264, 38.762976 ], [ -77.151192, 38.762875 ], [ -77.151148, 38.762827 ], [ -77.151089, 38.762764 ], [ -77.150997, 38.762683 ], [ -77.150925, 38.762629 ], [ -77.150808, 38.762542 ], [ -77.150574, 38.762318 ], [ -77.150494, 38.762222 ], [ -77.150205, 38.761838 ], [ -77.150056, 38.761675 ], [ -77.149985, 38.761597 ], [ -77.14998, 38.761578 ], [ -77.149966, 38.76153 ], [ -77.149929, 38.761451 ], [ -77.149902, 38.76141 ], [ -77.149565, 38.760959 ], [ -77.149389, 38.760677 ], [ -77.149255, 38.760494 ], [ -77.148927, 38.760041 ], [ -77.147934, 38.75874 ], [ -77.147859, 38.758637 ], [ -77.147724, 38.75845 ], [ -77.147396, 38.758019 ], [ -77.147225, 38.757812 ], [ -77.146902, 38.757505 ], [ -77.146774, 38.757369 ], [ -77.146523, 38.757136 ], [ -77.146021, 38.756694 ], [ -77.145773, 38.7565 ], [ -77.146604, 38.755918 ], [ -77.146844, 38.755757 ], [ -77.14703, 38.755655 ], [ -77.147307, 38.755529 ], [ -77.14769, 38.755411 ], [ -77.148202, 38.755308 ], [ -77.148802, 38.755191 ], [ -77.149041, 38.755135 ], [ -77.149207, 38.755081 ], [ -77.149239, 38.755067 ], [ -77.149386, 38.755005 ], [ -77.149498, 38.754947 ], [ -77.149615, 38.754877 ], [ -77.151232, 38.753729 ], [ -77.151341, 38.753656 ], [ -77.151716, 38.75343 ], [ -77.152082, 38.753204 ], [ -77.152317, 38.753076 ], [ -77.152457, 38.753007 ], [ -77.152704, 38.752884 ], [ -77.153015, 38.752741 ], [ -77.153341, 38.752601 ], [ -77.153475, 38.752551 ], [ -77.153647, 38.752486 ], [ -77.154029, 38.752352 ], [ -77.154523, 38.752201 ], [ -77.156191, 38.751693 ], [ -77.156279, 38.751666 ], [ -77.156471, 38.751616 ], [ -77.156679, 38.751572 ], [ -77.156836, 38.751547 ], [ -77.156988, 38.751523 ], [ -77.157282, 38.751477 ], [ -77.157335, 38.751467 ], [ -77.157452, 38.751445 ], [ -77.157655, 38.751391 ], [ -77.157863, 38.751313 ], [ -77.157991, 38.751254 ], [ -77.158196, 38.751145 ], [ -77.15824, 38.751115 ], [ -77.158417, 38.750971 ], [ -77.158555, 38.750841 ], [ -77.158651, 38.750741 ], [ -77.158704, 38.750685 ], [ -77.158823, 38.75056 ], [ -77.159026, 38.750346 ], [ -77.159175, 38.750189 ], [ -77.159314, 38.75006 ], [ -77.159389, 38.750002 ], [ -77.159565, 38.749884 ], [ -77.159731, 38.749793 ], [ -77.159761, 38.74978 ], [ -77.159919, 38.749712 ], [ -77.160079, 38.74966 ], [ -77.160211, 38.749617 ], [ -77.160435, 38.749576 ], [ -77.160677, 38.74955 ], [ -77.160919, 38.749545 ], [ -77.161178, 38.749564 ], [ -77.161379, 38.749598 ], [ -77.161572, 38.749646 ], [ -77.161765, 38.749711 ], [ -77.162052, 38.749821 ], [ -77.162282, 38.749884 ], [ -77.162419, 38.749919 ], [ -77.162639, 38.749942 ], [ -77.163288, 38.749971 ], [ -77.163506, 38.74999 ], [ -77.163697, 38.750022 ], [ -77.164, 38.750097 ], [ -77.164229, 38.7502 ], [ -77.164344, 38.750257 ], [ -77.164487, 38.750341 ], [ -77.164609, 38.750425 ], [ -77.164713, 38.750509 ], [ -77.164818, 38.750607 ], [ -77.165052, 38.750878 ], [ -77.165176, 38.751024 ], [ -77.165295, 38.75115 ], [ -77.165376, 38.751222 ], [ -77.165473, 38.751297 ], [ -77.165597, 38.751381 ], [ -77.165727, 38.751456 ], [ -77.165935, 38.751553 ], [ -77.166136, 38.751639 ] ] ] } },
{ "type": "Feature", "properties": { "STATEFP": "51", "COUNTYFP": "059", "TRACTCE": "422301", "GEOID": "51059422301", "GEOIDFQ": "1400000US51059422301", "NAME_x": "4223.01", "NAMELSAD": "Census Tract 4223.01", "MTFCC": "G5020", "FUNCSTAT": "S", "ALAND": 1290927, "AWATER": 0, "INTPTLAT": "+38.7801378", "INTPTLON": "-077.1283467", "bbox_west": -77.167532, "bbox_south": 38.740042, "bbox_east": -77.121969, "bbox_north": 38.784071, "place_id": 347794220, "osm_type": "relation", "osm_id": 18347702, "lat": 38.762132, "lon": -77.1444093, "class": "boundary", "type": "census", "place_rank": 25, "importance": 0.37858398060478177, "addresstype": "census", "name": "Kingstowne", "display_name": "Kingstowne, Fairfax County, Virginia, United States", "NAME_y": "4223.01", "median_income": 156107, "no_vehicle_households": 46, "population": 2642, "state": "51", "county": "059", "tract": "422301" }, "geometry": { "type": "Polygon", "coordinates": [ [ [ -77.136072, 38.784071 ], [ -77.134337, 38.784081 ], [ -77.133194, 38.784075 ], [ -77.132532, 38.784072 ], [ -77.132158, 38.784072 ], [ -77.132038, 38.784073 ], [ -77.13108, 38.784078 ], [ -77.129675, 38.784083 ], [ -77.128917, 38.784081 ], [ -77.127427, 38.784089 ], [ -77.127124, 38.784096 ], [ -77.12681, 38.784125 ], [ -77.126367, 38.784194 ], [ -77.126259, 38.784219 ], [ -77.126067, 38.784266 ], [ -77.125811, 38.78433 ], [ -77.125591, 38.784399 ], [ -77.125498, 38.784434 ], [ -77.125215, 38.784567 ], [ -77.125005, 38.784682 ], [ -77.124698, 38.784883 ], [ -77.124509, 38.785037 ], [ -77.123952, 38.785493 ], [ -77.123841, 38.785602 ], [ -77.123792, 38.785641 ], [ -77.123646, 38.785735 ], [ -77.123529, 38.785802 ], [ -77.12324, 38.785948 ], [ -77.12293, 38.786068 ], [ -77.122785, 38.786115 ], [ -77.122654, 38.786147 ], [ -77.122381, 38.786197 ], [ -77.121813, 38.786269 ], [ -77.121547, 38.786301 ], [ -77.121317, 38.786357 ], [ -77.121254, 38.786156 ], [ -77.121173, 38.785749 ], [ -77.121106, 38.785476 ], [ -77.121027, 38.785157 ], [ -77.120866, 38.784597 ], [ -77.120651, 38.783948 ], [ -77.12059, 38.783804 ], [ -77.120524, 38.783684 ], [ -77.120443, 38.78357 ], [ -77.120313, 38.783427 ], [ -77.119849, 38.783028 ], [ -77.119288, 38.782549 ], [ -77.119052, 38.782348 ], [ -77.118725, 38.78207 ], [ -77.118692, 38.782038 ], [ -77.118603, 38.781952 ], [ -77.118431, 38.781772 ], [ -77.118312, 38.781615 ], [ -77.118204, 38.781465 ], [ -77.117901, 38.780991 ], [ -77.119288, 38.780458 ], [ -77.120492, 38.779949 ], [ -77.12214, 38.779253 ], [ -77.122769, 38.778895 ], [ -77.125247, 38.777093 ], [ -77.127009, 38.775978 ], [ -77.127317, 38.775826 ], [ -77.127412, 38.775773 ], [ -77.127866, 38.775565 ], [ -77.128329, 38.775338 ], [ -77.128926, 38.774982 ], [ -77.131368, 38.773535 ], [ -77.132237, 38.772834 ], [ -77.132451, 38.772993 ], [ -77.132766, 38.7732 ], [ -77.133078, 38.773385 ], [ -77.133303, 38.77351 ], [ -77.133533, 38.773677 ], [ -77.133689, 38.773799 ], [ -77.133954, 38.774032 ], [ -77.1343, 38.774389 ], [ -77.134393, 38.774499 ], [ -77.134471, 38.77459 ], [ -77.134524, 38.774661 ], [ -77.134632, 38.774803 ], [ -77.134792, 38.775045 ], [ -77.134905, 38.775264 ], [ -77.134984, 38.775395 ], [ -77.135104, 38.775642 ], [ -77.135171, 38.775782 ], [ -77.135181, 38.775841 ], [ -77.135262, 38.776124 ], [ -77.13533, 38.776397 ], [ -77.135367, 38.776576 ], [ -77.135395, 38.776758 ], [ -77.135422, 38.777037 ], [ -77.135444, 38.777699 ], [ -77.135455, 38.777875 ], [ -77.135476, 38.77814 ], [ -77.135489, 38.778677 ], [ -77.135491, 38.779226 ], [ -77.135488, 38.779425 ], [ -77.135525, 38.780963 ], [ -77.135552, 38.782052 ], [ -77.135565, 38.78232 ], [ -77.135566, 38.78235 ], [ -77.135587, 38.782566 ], [ -77.135628, 38.782803 ], [ -77.13567, 38.782974 ], [ -77.135762, 38.78325 ], [ -77.135985, 38.783821 ], [ -77.136072, 38.784071 ] ] ] } },
{ "type": "Feature", "properties": { "STATEFP": "51", "COUNTYFP": "059", "TRACTCE": "422302", "GEOID": "51059422302", "GEOIDFQ": "1400000US51059422302", "NAME_x": "4223.02", "NAMELSAD": "Census Tract 4223.02", "MTFCC": "G5020", "FUNCSTAT": "S", "ALAND": 2413425, "AWATER": 51384, "INTPTLAT": "+38.7719875", "INTPTLON": "-077.1437691", "bbox_west": -77.167532, "bbox_south": 38.740042, "bbox_east": -77.121969, "bbox_north": 38.784071, "place_id": 347794220, "osm_type": "relation", "osm_id": 18347702, "lat": 38.762132, "lon": -77.1444093, "class": "boundary", "type": "census", "place_rank": 25, "importance": 0.37858398060478177, "addresstype": "census", "name": "Kingstowne", "display_name": "Kingstowne, Fairfax County, Virginia, United States", "NAME_y": "4223.02", "median_income": 136176, "no_vehicle_households": 58, "population": 6254, "state": "51", "county": "059", "tract": "422302" }, "geometry": { "type": "Polygon", "coordinates": [ [ [ -77.155698, 38.765561 ], [ -77.155604, 38.765827 ], [ -77.155499, 38.766156 ], [ -77.155372, 38.766498 ], [ -77.155306, 38.766741 ], [ -77.155093, 38.767434 ], [ -77.154954, 38.767903 ], [ -77.154816, 38.768209 ], [ -77.15425, 38.769098 ], [ -77.153286, 38.770461 ], [ -77.15286, 38.770965 ], [ -77.15039, 38.774236 ], [ -77.149507, 38.775307 ], [ -77.149065, 38.775967 ], [ -77.148979, 38.77608 ], [ -77.148848, 38.776251 ], [ -77.148686, 38.776464 ], [ -77.148611, 38.776544 ], [ -77.148532, 38.77664 ], [ -77.148434, 38.776778 ], [ -77.148392, 38.776846 ], [ -77.147457, 38.778061 ], [ -77.147347, 38.778189 ], [ -77.147237, 38.778318 ], [ -77.146723, 38.778982 ], [ -77.146485, 38.779309 ], [ -77.146225, 38.779631 ], [ -77.14604, 38.779865 ], [ -77.145967, 38.779975 ], [ -77.145934, 38.780049 ], [ -77.145929, 38.780106 ], [ -77.145932, 38.780247 ], [ -77.145918, 38.780395 ], [ -77.145902, 38.780619 ], [ -77.145905, 38.780982 ], [ -77.14589, 38.781109 ], [ -77.145904, 38.781876 ], [ -77.14594, 38.78219 ], [ -77.14573, 38.782232 ], [ -77.145649, 38.782241 ], [ -77.1456, 38.782241 ], [ -77.145532, 38.782254 ], [ -77.145398, 38.782278 ], [ -77.145186, 38.782329 ], [ -77.143773, 38.782596 ], [ -77.143595, 38.78263 ], [ -77.143003, 38.78275 ], [ -77.142746, 38.782806 ], [ -77.14165, 38.783044 ], [ -77.140631, 38.783231 ], [ -77.139792, 38.783395 ], [ -77.139646, 38.783432 ], [ -77.138965, 38.783567 ], [ -77.138639, 38.783625 ], [ -77.138244, 38.783691 ], [ -77.137757, 38.78379 ], [ -77.137597, 38.783837 ], [ -77.137433, 38.783863 ], [ -77.137362, 38.783866 ], [ -77.137257, 38.783888 ], [ -77.137129, 38.783898 ], [ -77.136582, 38.783995 ], [ -77.136072, 38.784071 ], [ -77.135985, 38.783821 ], [ -77.135762, 38.78325 ], [ -77.13567, 38.782974 ], [ -77.135628, 38.782803 ], [ -77.135587, 38.782566 ], [ -77.135566, 38.78235 ], [ -77.135565, 38.78232 ], [ -77.135552, 38.782052 ], [ -77.135525, 38.780963 ], [ -77.135488, 38.779425 ], [ -77.135491, 38.779226 ], [ -77.135489, 38.778677 ], [ -77.135476, 38.77814 ], [ -77.135455, 38.777875 ], [ -77.135444, 38.777699 ], [ -77.135422, 38.777037 ], [ -77.135395, 38.776758 ], [ -77.135367, 38.776576 ], [ -77.13533, 38.776397 ], [ -77.135262, 38.776124 ], [ -77.135181, 38.775841 ], [ -77.135171, 38.775782 ], [ -77.135104, 38.775642 ], [ -77.134984, 38.775395 ], [ -77.134905, 38.775264 ], [ -77.134792, 38.775045 ], [ -77.134632, 38.774803 ], [ -77.134524, 38.774661 ], [ -77.134471, 38.77459 ], [ -77.134393, 38.774499 ], [ -77.1343, 38.774389 ], [ -77.133954, 38.774032 ], [ -77.133689, 38.773799 ], [ -77.133533, 38.773677 ], [ -77.133303, 38.77351 ], [ -77.133078, 38.773385 ], [ -77.132766, 38.7732 ], [ -77.132451, 38.772993 ], [ -77.132237, 38.772834 ], [ -77.132445, 38.772719 ], [ -77.134872, 38.77139 ], [ -77.13918, 38.769021 ], [ -77.139809, 38.768675 ], [ -77.140965, 38.76804 ], [ -77.142045, 38.76743 ], [ -77.142239, 38.767331 ], [ -77.143081, 38.766904 ], [ -77.144279, 38.766199 ], [ -77.144971, 38.765832 ], [ -77.145635, 38.76548 ], [ -77.146098, 38.765237 ], [ -77.146316, 38.765122 ], [ -77.147681, 38.7644 ], [ -77.148005, 38.764229 ], [ -77.148248, 38.764099 ], [ -77.149092, 38.763635 ], [ -77.149241, 38.763553 ], [ -77.150247, 38.763002 ], [ -77.150925, 38.762629 ], [ -77.150997, 38.762683 ], [ -77.151089, 38.762764 ], [ -77.151148, 38.762827 ], [ -77.151192, 38.762875 ], [ -77.151264, 38.762976 ], [ -77.151325, 38.763081 ], [ -77.151368, 38.763179 ], [ -77.1514, 38.763281 ], [ -77.151421, 38.763385 ], [ -77.151425, 38.763445 ], [ -77.151413, 38.763582 ], [ -77.151388, 38.763706 ], [ -77.151377, 38.763759 ], [ -77.151717, 38.763801 ], [ -77.151908, 38.763837 ], [ -77.152334, 38.763932 ], [ -77.152691, 38.764047 ], [ -77.153012, 38.764193 ], [ -77.153333, 38.764353 ], [ -77.153565, 38.764445 ], [ -77.153825, 38.764579 ], [ -77.154271, 38.764825 ], [ -77.154648, 38.765021 ], [ -77.154929, 38.765166 ], [ -77.155407, 38.765343 ], [ -77.155748, 38.765417 ], [ -77.155698, 38.765561 ] ] ] } }
]
}
