{
"type": "FeatureCollection",
"name": "kingstowne_pois",
"crs": { "type": "name", "properties": { "name": "urn:ogc:def:crs:OGC:1.3:CRS84" } },
"features": [
{ "type": "Feature", "properties": { "element": "node", "id": 4208133624, "brand": "Giant", "category": "grocery" }, "geometry": { "type": "Point", "coordinates": [ -77.1370627, 38.7727055 ] } },
{ "type": "Feature", "properties": { "element": "node", "id": 7956135900, "brand": "Aldi", "category": "grocery" }, "geometry": { "type": "Point", "coordinates": [ -77.1399361, 38.7679777 ] } },
{ "type": "Feature", "properties": { "element": "node", "id": 7956150256, "brand": "Safeway", "category": "grocery" }, "geometry": { "type": "Point", "coordinates": [ -77.1413998, 38.7700207 ] } },
{ "type": "Feature", "properties": { "element": "way", "id": 391755853, "brand": "Wegmans", "category": "grocery" }, "geometry": { "type": "Point", "coordinates": [ -77.161081522211148, 38.742566088464955 ] } }
]
}
